[{"OBJECT_NAME":"ONEWEB-0698","OBJECT_ID":"2024-188L","EPOCH":"2026-02-21T11:03:01.818144","MEAN_MOTION":13.11417825,"ECCENTRICITY":0.0001961,"INCLINATION":87.8829,"RA_OF_ASC_NODE":44.1024,"ARG_OF_PERICENTER":122.7439,"MEAN_ANOMALY":237.3878,"EPHEMERIS_TYPE":0,"CLASSIFICATION_TYPE":"U","NORAD_CAT_ID":61604,"ELEMENT_SET_NO":999,"REV_AT_EPOCH":6930,"BSTAR":-0.0012670683,"MEAN_MOTION_DOT":-4.36e-6,"MEAN_MOTION_DDOT":0},{"OBJECT_NAME":"ONEWEB-0699","OBJECT_ID":"2024-188M","EPOCH":"2026-02-21T10:58:52.916160","MEAN_MOTION":13.10373869,"ECCENTRICITY":0.00022511,"INCLINATION":87.8766,"RA_OF_ASC_NODE":59.3147,"ARG_OF_PERICENTER":105.298,"MEAN_ANOMALY":254.8396,"EPHEMERIS_TYPE":0,"CLASSIFICATION_TYPE":"U","NORAD_CAT_ID":61605,"ELEMENT_SET_NO":999,"REV_AT_EPOCH":6815,"BSTAR":0.0015694841,"MEAN_MOTION_DOT":5.61e-6,"MEAN_MOTION_DDOT":0},{"OBJECT_NAME":"ONEWEB-0700","OBJECT_ID":"2024-188N","EPOCH":"2026-02-21T11:01:16.046400","MEAN_MOTION":13.10373586,"ECCENTRICITY":0.00024962,"INCLINATION":87.8778,"RA_OF_ASC_NODE":59.2071,"ARG_OF_PERICENTER":96.5859,"MEAN_ANOMALY":263.5553,"EPHEMERIS_TYPE":0,"CLASSIFICATION_TYPE":"U","NORAD_CAT_ID":61606,"ELEMENT_SET_NO":999,"REV_AT_EPOCH":6814,"BSTAR":0.0016782992,"MEAN_MOTION_DOT":5.99e-6,"MEAN_MOTION_DDOT":0},{"OBJECT_NAME":"ONEWEB-0701","OBJECT_ID":"2024-188P","EPOCH":"2026-02-21T11:25:09.730848","MEAN_MOTION":13.10369224,"ECCENTRICITY":0.00024085,"INCLINATION":87.8759,"RA_OF_ASC_NODE":59.3112,"ARG_OF_PERICENTER":106.7692,"MEAN_ANOMALY":253.37,"EPHEMERIS_TYPE":0,"CLASSIFICATION_TYPE":"U","NORAD_CAT_ID":61607,"ELEMENT_SET_NO":999,"REV_AT_EPOCH":6815,"BSTAR":0.0011892824,"MEAN_MOTION_DOT":4.28e-6,"MEAN_MOTION_DDOT":0},{"OBJECT_NAME":"ONEWEB-0702","OBJECT_ID":"2024-188Q","EPOCH":"2026-02-21T12:08:58.670304","MEAN_MOTION":13.11414746,"ECCENTRICITY":0.00027234,"INCLINATION":87.8848,"RA_OF_ASC_NODE":43.978,"ARG_OF_PERICENTER":100.697,"MEAN_ANOMALY":259.4465,"EPHEMERIS_TYPE":0,"CLASSIFICATION_TYPE":"U","NORAD_CAT_ID":61608,"ELEMENT_SET_NO":999,"REV_AT_EPOCH":6932,"BSTAR":0.0013098848,"MEAN_MOTION_DOT":4.77e-6,"MEAN_MOTION_DDOT":0},{"OBJECT_NAME":"ONEWEB-0704","OBJECT_ID":"2024-188R","EPOCH":"2026-02-21T11:08:27.748320","MEAN_MOTION":13.1037294,"ECCENTRICITY":0.00027543,"INCLINATION":87.8777,"RA_OF_ASC_NODE":59.2875,"ARG_OF_PERICENTER":100.7383,"MEAN_ANOMALY":259.4054,"EPHEMERIS_TYPE":0,"CLASSIFICATION_TYPE":"U","NORAD_CAT_ID":61609,"ELEMENT_SET_NO":999,"REV_AT_EPOCH":6813,"BSTAR":0.0019027952,"MEAN_MOTION_DOT":6.77e-6,"MEAN_MOTION_DDOT":0},{"OBJECT_NAME":"ONEWEB-0705","OBJECT_ID":"2024-188S","EPOCH":"2026-02-21T09:25:39.743904","MEAN_MOTION":13.10370733,"ECCENTRICITY":0.00029299,"INCLINATION":87.8762,"RA_OF_ASC_NODE":59.3167,"ARG_OF_PERICENTER":79.6097,"MEAN_ANOMALY":280.5361,"EPHEMERIS_TYPE":0,"CLASSIFICATION_TYPE":"U","NORAD_CAT_ID":61610,"ELEMENT_SET_NO":999,"REV_AT_EPOCH":6029,"BSTAR":0.0017681421,"MEAN_MOTION_DOT":6.3e-6,"MEAN_MOTION_DDOT":0},{"OBJECT_NAME":"ONEWEB-0706","OBJECT_ID":"2024-188T","EPOCH":"2026-02-21T10:54:05.859072","MEAN_MOTION":13.1037464,"ECCENTRICITY":0.00024673,"INCLINATION":87.8757,"RA_OF_ASC_NODE":59.3185,"ARG_OF_PERICENTER":93.2697,"MEAN_ANOMALY":266.8713,"EPHEMERIS_TYPE":0,"CLASSIFICATION_TYPE":"U","NORAD_CAT_ID":61611,"ELEMENT_SET_NO":999,"REV_AT_EPOCH":6822,"BSTAR":0.0012674881,"MEAN_MOTION_DOT":4.55e-6,"MEAN_MOTION_DDOT":0},{"OBJECT_NAME":"ONEWEB-0707","OBJECT_ID":"2024-188U","EPOCH":"2026-02-21T11:03:39.502368","MEAN_MOTION":13.10372844,"ECCENTRICITY":0.0002426,"INCLINATION":87.8764,"RA_OF_ASC_NODE":59.3026,"ARG_OF_PERICENTER":94.3214,"MEAN_ANOMALY":265.819,"EPHEMERIS_TYPE":0,"CLASSIFICATION_TYPE":"U","NORAD_CAT_ID":61612,"ELEMENT_SET_NO":999,"REV_AT_EPOCH":6816,"BSTAR":0.0018250807,"MEAN_MOTION_DOT":6.5e-6,"MEAN_MOTION_DDOT":0},{"OBJECT_NAME":"ONEWEB-0708","OBJECT_ID":"2024-188V","EPOCH":"2026-02-21T11:29:56.955552","MEAN_MOTION":13.10369782,"ECCENTRICITY":0.00022203,"INCLINATION":87.8752,"RA_OF_ASC_NODE":59.3281,"ARG_OF_PERICENTER":75.9057,"MEAN_ANOMALY":284.2317,"EPHEMERIS_TYPE":0,"CLASSIFICATION_TYPE":"U","NORAD_CAT_ID":61613,"ELEMENT_SET_NO":999,"REV_AT_EPOCH":6814,"BSTAR":0.00078676855,"MEAN_MOTION_DOT":2.87e-6,"MEAN_MOTION_DDOT":0}]
