ONEWEB-0698             
1 61604U 24188L   26052.46043771 -.00000436  00000+0 -12671-2 0  9990
2 61604  87.8829  44.1024 0001961 122.7439 237.3878 13.11417825 69300
ONEWEB-0699             
1 61605U 24188M   26052.45755690  .00000561  00000+0  15695-2 0  9996
2 61605  87.8766  59.3147 0002251 105.2980 254.8396 13.10373869 68154
ONEWEB-0700             
1 61606U 24188N   26052.45921350  .00000599  00000+0  16783-2 0  9995
2 61606  87.8778  59.2071 0002496  96.5859 263.5553 13.10373586 68148
ONEWEB-0701             
1 61607U 24188P   26052.47580707  .00000428  00000+0  11893-2 0  9993
2 61607  87.8759  59.3112 0002408 106.7692 253.3700 13.10369224 68153
ONEWEB-0702             
1 61608U 24188Q   26052.50623461  .00000477  00000+0  13099-2 0  9997
2 61608  87.8848  43.9780 0002723 100.6970 259.4465 13.11414746 69321
ONEWEB-0704             
1 61609U 24188R   26052.46421005  .00000677  00000+0  19028-2 0  9993
2 61609  87.8777  59.2875 0002754 100.7383 259.4054 13.10372940 68131
ONEWEB-0705             
1 61610U 24188S   26052.39282111  .00000630  00000+0  17681-2 0  9992
2 61610  87.8762  59.3167 0002929  79.6097 280.5361 13.10370733 60295
ONEWEB-0706             
1 61611U 24188T   26052.45423448  .00000455  00000+0  12675-2 0  9993
2 61611  87.8757  59.3185 0002467  93.2697 266.8713 13.10374640 68225
ONEWEB-0707             
1 61612U 24188U   26052.46087387  .00000650  00000+0  18251-2 0  9996
2 61612  87.8764  59.3026 0002426  94.3214 265.8190 13.10372844 68165
ONEWEB-0708             
1 61613U 24188V   26052.47913143  .00000287  00000+0  78677-3 0  9991
2 61613  87.8752  59.3281 0002220  75.9057 284.2317 13.10369782 68149
